[{"OBJECT_NAME":"STARLINK-30800","OBJECT_ID":"2023-170A","EPOCH":"2026-03-09T22:00:01.999584","MEAN_MOTION":15.26732443,"ECCENTRICITY":0.00014089,"INCLINATION":43.0008,"RA_OF_ASC_NODE":193.2671,"ARG_OF_PERICENTER":283.4934,"MEAN_ANOMALY":319.3848,"EPHEMERIS_TYPE":0,"CLASSIFICATION_TYPE":"U","NORAD_CAT_ID":58206,"ELEMENT_SET_NO":999,"REV_AT_EPOCH":552,"BSTAR":0.00061411305,"MEAN_MOTION_DOT":0.00016245,"MEAN_MOTION_DDOT":0},{"OBJECT_NAME":"KUIPER-00274","OBJECT_ID":"2026-030AE","EPOCH":"2026-03-09T22:00:01.999584","MEAN_MOTION":15.29896925,"ECCENTRICITY":0.00182929,"INCLINATION":51.8831,"RA_OF_ASC_NODE":218.6923,"ARG_OF_PERICENTER":71.2033,"MEAN_ANOMALY":115.2248,"EPHEMERIS_TYPE":0,"CLASSIFICATION_TYPE":"U","NORAD_CAT_ID":67792,"ELEMENT_SET_NO":999,"REV_AT_EPOCH":410,"BSTAR":0.0017989756,"MEAN_MOTION_DOT":0.00053102,"MEAN_MOTION_DDOT":0}]
